norad_id,name,regime,epoch,line1,line2,inclination,eccentricity,mean_motion,raan,arg_pericenter,mean_anomaly
43015,MIRATA,LEO,20126.19080104,1 43015U 17073C   20126.19080104 +.00000523 +00000-0 +45975-4 0 0001\,2 43015 097.7207 040.0517 0253068 189.3919 170.2515 14.7958116113282,97.7207,0.0253068,14.79581161,40.0517,189.3919,170.2515
43015,MIRATA,LEO,20126.73184248,1 43015U 17073C   20126.73184248  .00000546  00000-0  47730-4 0  7605\,2 43015  97.7207  40.5722 0253106 187.6257 172.1077 14.79581994132907,97.7207,0.0253106,14.79581994,40.5722,187.6257,172.1077
43015,MIRATA,LEO,20126.79947273,1 43015U 17073C   20126.79947273 +.00000531 +00000-0 +46613-4 0 0001\,2 43015 097.7207 040.6372 0253116 187.4045 172.3402 14.7958197813291,97.7207,0.0253116,14.79581978,40.6372,187.4045,172.3402
43015,MIRATA,LEO,20127.20525374,1 43015U 17073C   20127.20525374 +.00000576 +00000-0 +50059-4 0 0001\,2 43015 097.7207 041.0277 0253147 186.0792 173.7334 14.7958271813297,97.7207,0.0253147,14.79582718,41.0277,186.0792,173.7334
43015,MIRATA,LEO,20127.81392524,1 43015U 17073C   20127.81392524 +.00000560 +00000-0 +48801-4 0 0001\,2 43015 097.7207 041.6133 0253202 184.0918 175.8229 14.7958330313306,97.7207,0.0253202,14.79583303,41.6133,184.0918,175.8229
43015,MIRATA,LEO,20128.01681573,1 43015U 17073C   20128.01681573 +.00000555 +00000-0 +48381-4 0 0761\,2 43015 097.7207 041.8085 0253207 183.4297 176.5191 14.7958348413309,97.7207,0.0253207,14.79583484,41.8085,183.4297,176.5191
43015,MIRATA,LEO,20128.82837715,1 43015U 17073C   20128.82837715 +.00000572 +00000-0 +49647-4 0 0001\,2 43015 097.7207 042.5892 0253276 180.7809 179.3045 14.7958453313321,97.7207,0.0253276,14.79584533,42.5892,180.7809,179.3045
43015,MIRATA,LEO,20129.03126747,1 43015U 17073C   20129.03126747  .00000562  00000-0  48882-4 0  7620\,2 43015  97.7207  42.7844 0253288 180.1186 180.0010 14.79584715133243,97.7207,0.0253288,14.79584715,42.7844,180.1186,180.001
43015,MIRATA,LEO,20129.77519822,1 43015U 17073C   20129.77519822 +.00000561 +00000-0 +48730-4 0 0001\,2 43015 097.7207 043.5001 0253348 177.6918 182.5531 14.7958565713335,97.7207,0.0253348,14.79585657,43.5001,177.6918,182.5531
43015,MIRATA,LEO,20130.45149863,1 43015U 17073C   20130.45149863  .00000518  00000-0  45441-4 0  7632\,2 43015  97.7206  44.1507 0253406 175.4829 184.8759 14.79586250133458,97.7206,0.0253406,14.7958625,44.1507,175.4829,184.8759
43015,MIRATA,LEO,20130.78964843,1 43015U 17073C   20130.78964843 +.00000529 +00000-0 +46279-4 0 0001\,2 43015 097.7207 044.4761 0253432 174.3824 186.0330 14.7958679513350,97.7207,0.0253432,14.79586795,44.4761,174.3824,186.033
43015,MIRATA,LEO,20131.39831818,1 43015U 17073C   20131.39831818 +.00000499 +00000-0 +43899-4 0 0001\,2 43015 097.7206 045.0616 0253485 172.3949 188.1225 14.7958734113359,97.7206,0.0253485,14.79587341,45.0616,172.3949,188.1225
43015,MIRATA,LEO,20131.80409774,1 43015U 17073C   20131.80409774  .00000490  00000-0  43225-4 0  7640\,2 43015  97.7206  45.4520 0253517 171.0732 189.5118 14.79587778133654,97.7206,0.0253517,14.79587778,45.452,171.0732,189.5118
43015,MIRATA,LEO,20132.41276659,1 43015U 17073C   20132.41276659 +.00000531 +00000-0 +46315-4 0 0001\,2 43015 097.7205 046.0375 0253565 169.0892 191.5968 14.7958871513374,97.7205,0.0253565,14.79588715,46.0375,169.0892,191.5968
43015,MIRATA,LEO,20132.81854597,1 43015U 17073C   20132.81854597  .00000500  00000-0  43930-4 0  7655\,2 43015  97.7205  46.4279 0253598 167.7668 192.9862 14.79588929133804,97.7205,0.0253598,14.79588929,46.4279,167.7668,192.9862
43015,MIRATA,LEO,20133.76536332,1 43015U 17073C   20133.76536332 +.00000489 +00000-0 +43044-4 0 0001\,2 43015 097.7204 047.3387 0253678 164.6811 196.2268 14.7958990913394,97.7204,0.0253678,14.79589909,47.3387,164.6811,196.2268
43015,MIRATA,LEO,20134.44166081,1 43015U 17073C   20134.44166081  .00000474  00000-0  41885-4 0  7668\,2 43015  97.7204  47.9893 0253731 162.4779 198.5391 14.79590578134044,97.7204,0.0253731,14.79590578,47.9893,162.4779,198.5391
43015,MIRATA,LEO,20134.57692023,1 43015U 17073C   20134.57692023 +.00000468 +00000-0 +41463-4 0 0001\,2 43015 097.7204 048.1195 0253744 162.0375 199.0012 14.7959070413406,97.7204,0.0253744,14.79590704,48.1195,162.0375,199.0012
43015,MIRATA,LEO,20134.77980931,1 43015U 17073C   20134.77980931 +.00000461 +00000-0 +40849-4 0 0001\,2 43015 097.7204 048.3147 0253760 161.3765 199.6946 14.7959091113409,97.7204,0.025376,14.79590911,48.3147,161.3765,199.6946
43015,MIRATA,LEO,20135.18558748,1 43015U 17073C   20135.18558748 +.00000451 +00000-0 +40131-4 0 0001\,2 43015 097.7204 048.7051 0253797 160.0537 201.0819 14.7959127913415,97.7204,0.0253797,14.79591279,48.7051,160.0537,201.0819
43015,MIRATA,LEO,20135.79425398,1 43015U 17073C   20135.79425398 +.00000449 +00000-0 +39933-4 0 0001\,2 43015 097.7203 049.2907 0253852 158.0721 203.1591 14.7959195713424,97.7203,0.0253852,14.79591957,49.2907,158.0721,203.1591
43015,MIRATA,LEO,20136.40292016,1 43015U 17073C   20136.40292016  .00000443  00000-0  39437-4 0  7671\,2 43015  97.7203  49.8762 0253907 156.0903 205.2351 14.79592508134331,97.7203,0.0253907,14.79592508,49.8762,156.0903,205.2351
43015,MIRATA,LEO,20136.47054962,1 43015U 17073C   20136.47054962 +.00000457 +00000-0 +40493-4 0 0001\,2 43015 097.7203 049.9413 0253914 155.8701 205.4657 14.7959266313434,97.7203,0.0253914,14.79592663,49.9413,155.8701,205.4657
43015,MIRATA,LEO,20136.87632675,1 43015U 17073C   20136.87632675 +.00000445 +00000-0 +39562-4 0 0001\,2 43015 097.7203 050.3316 0253947 154.5498 206.8478 14.7959298313440,97.7203,0.0253947,14.79592983,50.3316,154.5498,206.8478
43015,MIRATA,LEO,20137.55262142,1 43015U 17073C   20137.55262142 +.00000465 +00000-0 +41062-4 0 0001\,2 43015 097.7204 050.9822 0253986 152.3476 209.1515 14.7959368713450,97.7204,0.0253986,14.79593687,50.9822,152.3476,209.1515
43015,MIRATA,LEO,20137.82313909,1 43015U 17073C   20137.82313909 +.00000468 +00000-0 +41314-4 0 0001\,2 43015 097.7204 051.2424 0254010 151.4676 210.0715 14.7959397313454,97.7204,0.025401,14.79593973,51.2424,151.4676,210.0715
43015,MIRATA,LEO,20138.83757934,1 43015U 17073C   20138.83757934 +.00000494 +00000-0 +43300-4 0 0001\,2 43015 097.7205 052.2182 0254085 148.1656 213.5204 14.7959511613469,97.7205,0.0254085,14.79595116,52.2182,148.1656,213.5204
43015,MIRATA,LEO,20139.44624275,1 43015U 17073C   20139.44624275 +.00000491 +00000-0 +43046-4 0 0001\,2 43015 097.7205 052.8038 0254119 146.1833 215.5882 14.7959570313478,97.7205,0.0254119,14.79595703,52.8038,146.1833,215.5882
43015,MIRATA,LEO,20139.78438858,1 43015U 17073C   20139.78438858  .00000520  00000-0  45268-4 0  7700\,2 43015  97.7205  53.1291 0254136 145.0837 216.7344 14.79596283134835,97.7205,0.0254136,14.79596283,53.1291,145.0837,216.7344
43015,MIRATA,LEO,20140.46067985,1 43015U 17073C   20140.46067985 +.00000539 +00000-0 +46667-4 0 0001\,2 43015 097.7205 053.7796 0254180 142.8837 219.0258 14.7959710713493,97.7205,0.025418,14.79597107,53.7796,142.8837,219.0258
43015,MIRATA,LEO,20140.86645414,1 43015U 17073C   20140.86645414 +.00000555 +00000-0 +47916-4 0 0001\,2 43015 097.7205 054.1699 0254204 141.5640 220.3988 14.7959765613499,97.7205,0.0254204,14.79597656,54.1699,141.564,220.3988
43015,MIRATA,LEO,20141.00171225,1 43015U 17073C   20141.00171225  .00000546  00000-0  47191-4 0  7716\,2 43015  97.7205  54.3001 0254214 141.1242 220.8563 14.79597721135019,97.7205,0.0254214,14.79597721,54.3001,141.1242,220.8563
43015,MIRATA,LEO,20141.40748606,1 43015U 17073C   20141.40748606 +.00000586 +00000-0 +50213-4 0 0001\,2 43015 097.7205 054.6904 0254248 139.8048 222.2279 14.7959838013507,97.7205,0.0254248,14.7959838,54.6904,139.8048,222.2279
43015,MIRATA,LEO,20141.81325973,1 43015U 17073C   20141.81325973 +.00000560 +00000-0 +48252-4 0 0001\,2 43015 097.7205 055.0807 0254275 138.4863 223.5974 14.7959864913513,97.7205,0.0254275,14.79598649,55.0807,138.4863,223.5974
43015,MIRATA,LEO,20142.01614644,1 43015U 17073C   20142.01614644  .00000565  00000-0  48615-4 0  7729\,2 43015  97.7205  55.2759 0254284 137.8255 224.2833 14.79598868135169,97.7205,0.0254284,14.79598868,55.2759,137.8255,224.2833
43015,MIRATA,LEO,20142.48954837,1 43015U 17073C   20142.48954837 +.00000585 +00000-0 +50144-4 0 0001\,2 43015 097.7205 055.7313 0254317 136.2870 225.8793 14.7959945513523,97.7205,0.0254317,14.79599455,55.7313,136.287,225.8793
43015,MIRATA,LEO,20142.82769234,1 43015U 17073C   20142.82769234 +.00000575 +00000-0 +49394-4 0 0001\,2 43015 097.7205 056.0566 0254343 135.1876 227.0190 14.7959979113528,97.7205,0.0254343,14.79599791,56.0566,135.1876,227.019
43015,MIRATA,LEO,20142.89532111,1 43015U 17073C   20142.89532111 +.00000575 +00000-0 +49370-4 0 0001\,2 43015 097.7205 056.1217 0254348 134.9678 227.2468 14.7959986013529,97.7205,0.0254348,14.7959986,56.1217,134.9678,227.2468
43015,MIRATA,LEO,20143.30109335,1 43015U 17073C   20143.30109335  .00000609  00000-0  51946-4 0  7739\,2 43015  97.7204  56.5120 0254376 133.6484 228.6131 14.79600560135357,97.7204,0.0254376,14.7960056,56.512,133.6484,228.6131
43015,MIRATA,LEO,20143.70686530,1 43015U 17073C   20143.70686530 +.00000594 +00000-0 +50805-4 0 0001\,2 43015 097.7203 056.9023 0254403 132.3296 229.9777 14.7960099013541,97.7203,0.0254403,14.7960099,56.9023,132.3296,229.9777
43015,MIRATA,LEO,20144.24789393,1 43015U 17073C   20144.24789393 +.00000615 +00000-0 +52379-4 0 0001\,2 43015 097.7203 057.4227 0254443 130.5709 231.7957 14.7960183213549,97.7203,0.0254443,14.79601832,57.4227,130.5709,231.7957
43015,MIRATA,LEO,20144.78892176,1 43015U 17073C   20144.78892176 +.00000617 +00000-0 +52555-4 0 0001\,2 43015 097.7202 057.9431 0254472 128.8131 233.6104 14.7960259713557,97.7202,0.0254472,14.79602597,57.9431,128.8131,233.6104
43015,MIRATA,LEO,20145.73571890,1 43015U 17073C   20145.73571890  .00000629  00000-0  53383-4 0  7758\,2 43015  97.7202  58.8540 0254521 125.7372 236.7806 14.79603923135711,97.7202,0.0254521,14.79603923,58.854,125.7372,236.7806
